{"type": "FeatureCollection", "features": [ {"type": "Feature", "properties": {"norad_id": 66652, "name": "2025-274C", "group": "last-30-days", "lat": -81.32014907986208, "lon": 22.336091815532846, "alt_km": 593.0082600716678, "timestamp": "2025-12-03T22:42:31.477426+00:00", "meta": {"OBJECT_NAME": "2025-274C", "OBJECT_ID": "2025-274C", "EPOCH": "2025-12-03T05:25:16.521024", "MEAN_MOTION": 14.91822835, "ECCENTRICITY": 0.0010496, "INCLINATION": 97.7382, "RA_OF_ASC_NODE": 264.5912, "ARG_OF_PERICENTER": 294.3514, "MEAN_ANOMALY": 65.6609, "EPHEMERIS_TYPE": 0, "CLASSIFICATION_TYPE": "U", "NORAD_CAT_ID": 66652, "ELEMENT_SET_NO": 999, "REV_AT_EPOCH": 98, "BSTAR": 0.0004122, "MEAN_MOTION_DOT": 4.108e-05, "MEAN_MOTION_DDOT": 0}, "tle": {"line1": "1 66652U 25274C   25337.22588566  .00004108  00000+0  41220-3 0  9991", "line2": "2 66652  97.7382 264.5912 0010496 294.3514  65.6609 14.91822835   982"}}, "geometry": {"type": "Point", "coordinates": [22.336091815532846, -81.32014907986208]}}, {"type": "Feature", "properties": {"norad_id": 66653, "name": "2025-274D", "group": "last-30-days", "lat": -81.42097002345609, "lon": 20.96708734593271, "alt_km": 592.2482916194031, "timestamp": "2025-12-03T22:42:31.477436+00:00", "meta": {"OBJECT_NAME": "2025-274D", "OBJECT_ID": "2025-274D", "EPOCH": "2025-12-03T05:25:13.001088", "MEAN_MOTION": 14.91829698, "ECCENTRICITY": 0.0011286, "INCLINATION": 97.738, "RA_OF_ASC_NODE": 264.591, "ARG_OF_PERICENTER": 290.1409, "MEAN_ANOMALY": 69.8595, "EPHEMERIS_TYPE": 0, "CLASSIFICATION_TYPE": "U", "NORAD_CAT_ID": 66653, "ELEMENT_SET_NO": 999, "REV_AT_EPOCH": 98, "BSTAR": 0.00038989, "MEAN_MOTION_DOT": 3.884e-05, "MEAN_MOTION_DDOT": 0}, "tle": {"line1": "1 66653U 25274D   25337.22584492  .00003884  00000+0  38989-3 0  9994", "line2": "2 66653  97.7380 264.5910 0011286 290.1409  69.8595 14.91829698   988"}}, "geometry": {"type": "Point", "coordinates": [20.96708734593271, -81.42097002345609]}}, {"type": "Feature", "properties": {"norad_id": 66654, "name": "JACK E", "group": "last-30-days", "lat": -82.24022555979188, "lon": -8.42224643436255, "alt_km": 591.2395164664795, "timestamp": "2025-12-03T22:42:31.477445+00:00", "meta": {"OBJECT_NAME": "JACK E", "OBJECT_ID": "2025-274E", "EPOCH": "2025-12-03T07:00:46.492128", "MEAN_MOTION": 14.91995256, "ECCENTRICITY": 0.001184, "INCLINATION": 97.7384, "RA_OF_ASC_NODE": 264.658, "ARG_OF_PERICENTER": 291.4111, "MEAN_ANOMALY": 68.5844, "EPHEMERIS_TYPE": 0, "CLASSIFICATION_TYPE": "U", "NORAD_CAT_ID": 66654, "ELEMENT_SET_NO": 999, "REV_AT_EPOCH": 99, "BSTAR": 0.00047327, "MEAN_MOTION_DOT": 4.748e-05, "MEAN_MOTION_DDOT": 0}, "tle": {"line1": "1 66654U 25274E   25337.29220477  .00004748  00000+0  47327-3 0  9998", "line2": "2 66654  97.7384 264.6580 0011840 291.4111  68.5844 14.91995256   995"}}, "geometry": {"type": "Point", "coordinates": [-8.42224643436255, -82.24022555979188]}}, {"type": "Feature", "properties": {"norad_id": 66655, "name": "2025-274F", "group": "last-30-days", "lat": -81.16128955373152, "lon": -33.74968613630576, "alt_km": 594.360328791684, "timestamp": "2025-12-03T22:42:31.477454+00:00", "meta": {"OBJECT_NAME": "2025-274F", "OBJECT_ID": "2025-274F", "EPOCH": "2025-12-03T08:36:28.461600", "MEAN_MOTION": 14.92220052, "ECCENTRICITY": 0.0007867, "INCLINATION": 97.7359, "RA_OF_ASC_NODE": 264.7247, "ARG_OF_PERICENTER": 319.5118, "MEAN_ANOMALY": 40.5515, "EPHEMERIS_TYPE": 0, "CLASSIFICATION_TYPE": "U", "NORAD_CAT_ID": 66655, "ELEMENT_SET_NO": 999, "REV_AT_EPOCH": 100, "BSTAR": 0.0004799, "MEAN_MOTION_DOT": 4.839e-05, "MEAN_MOTION_DDOT": 0}, "tle": {"line1": "1 66655U 25274F   25337.35866275  .00004839  00000+0  47990-3 0  9995", "line2": "2 66655  97.7359 264.7247 0007867 319.5118  40.5515 14.92220052  1006"}}, "geometry": {"type": "Point", "coordinates": [-33.74968613630576, -81.16128955373152]}}, {"type": "Feature", "properties": {"norad_id": 66656, "name": "2025-274G", "group": "last-30-days", "lat": -80.69417517290606, "lon": -38.61752405953782, "alt_km": 590.0745849624127, "timestamp": "2025-12-03T22:42:31.477463+00:00", "meta": {"OBJECT_NAME": "2025-274G", "OBJECT_ID": "2025-274G", "EPOCH": "2025-12-03T00:33:22.809888", "MEAN_MOTION": 14.92174032, "ECCENTRICITY": 0.00125314, "INCLINATION": 97.7381, "RA_OF_ASC_NODE": 264.3956, "ARG_OF_PERICENTER": 293.9277, "MEAN_ANOMALY": 66.063, "EPHEMERIS_TYPE": 0, "CLASSIFICATION_TYPE": "U", "NORAD_CAT_ID": 66656, "ELEMENT_SET_NO": 999, "REV_AT_EPOCH": 95, "BSTAR": 0.00050145272, "MEAN_MOTION_DOT": 5.058e-05, "MEAN_MOTION_DDOT": 0}, "tle": {"line1": "1 66656U 25274G   25337.02318067  .00005058  00000+0  50145-3 0  9991", "line2": "2 66656  97.7381 264.3956 0012531 293.9277  66.0630 14.92174032   950"}}, "geometry": {"type": "Point", "coordinates": [-38.61752405953782, -80.69417517290606]}}, {"type": "Feature", "properties": {"norad_id": 66657, "name": "SPIRONE", "group": "last-30-days", "lat": -77.52850442865291, "lon": -56.760605458371415, "alt_km": 591.192651840558, "timestamp": "2025-12-03T22:42:31.477474+00:00", "meta": {"OBJECT_NAME": "SPIRONE", "OBJECT_ID": "2025-274H", "EPOCH": "2025-12-03T06:58:30.312768", "MEAN_MOTION": 14.92357413, "ECCENTRICITY": 0.0011134, "INCLINATION": 97.7379, "RA_OF_ASC_NODE": 264.6598, "ARG_OF_PERICENTER": 312.11, "MEAN_ANOMALY": 47.9172, "EPHEMERIS_TYPE": 0, "CLASSIFICATION_TYPE": "U", "NORAD_CAT_ID": 66657, "ELEMENT_SET_NO": 999, "REV_AT_EPOCH": 99, "BSTAR": 0.0005186, "MEAN_MOTION_DOT": 5.255e-05, "MEAN_MOTION_DDOT": 0}, "tle": {"line1": "1 66657U 25274H   25337.29062862  .00005255  00000+0  51860-3 0  9994", "line2": "2 66657  97.7379 264.6598 0011134 312.1100  47.9172 14.92357413   999"}}, "geometry": {"type": "Point", "coordinates": [-56.760605458371415, -77.52850442865291]}}, {"type": "Feature", "properties": {"norad_id": 66658, "name": "2025-274J", "group": "last-30-days", "lat": -73.69808532598883, "lon": -66.98790804971064, "alt_km": 590.1351716863282, "timestamp": "2025-12-03T22:42:31.477483+00:00", "meta": {"OBJECT_NAME": "2025-274J", "OBJECT_ID": "2025-274J", "EPOCH": "2025-12-03T08:33:55.405728", "MEAN_MOTION": 14.92532646, "ECCENTRICITY": 0.0011742, "INCLINATION": 97.7381, "RA_OF_ASC_NODE": 264.7266, "ARG_OF_PERICENTER": 314.6761, "MEAN_ANOMALY": 45.35, "EPHEMERIS_TYPE": 0, "CLASSIFICATION_TYPE": "U", "NORAD_CAT_ID": 66658, "ELEMENT_SET_NO": 999, "REV_AT_EPOCH": 100, "BSTAR": 0.00049949, "MEAN_MOTION_DOT": 5.083e-05, "MEAN_MOTION_DDOT": 0}, "tle": {"line1": "1 66658U 25274J   25337.35689127  .00005083  00000+0  49949-3 0  9995", "line2": "2 66658  97.7381 264.7266 0011742 314.6761  45.3500 14.92532646  1004"}}, "geometry": {"type": "Point", "coordinates": [-66.98790804971064, -73.69808532598883]}}, {"type": "Feature", "properties": {"norad_id": 66659, "name": "JACK K", "group": "last-30-days", "lat": -69.31764105525019, "lon": -73.58028611213605, "alt_km": 588.8197677885346, "timestamp": "2025-12-03T22:42:31.477492+00:00", "meta": {"OBJECT_NAME": "JACK K", "OBJECT_ID": "2025-274K", "EPOCH": "2025-12-03T06:56:11.914656", "MEAN_MOTION": 14.92717917, "ECCENTRICITY": 0.0012467, "INCLINATION": 97.7382, "RA_OF_ASC_NODE": 264.662, "ARG_OF_PERICENTER": 315.9556, "MEAN_ANOMALY": 44.0669, "EPHEMERIS_TYPE": 0, "CLASSIFICATION_TYPE": "U", "NORAD_CAT_ID": 66659, "ELEMENT_SET_NO": 999, "REV_AT_EPOCH": 99, "BSTAR": 0.00049135, "MEAN_MOTION_DOT": 5.023e-05, "MEAN_MOTION_DDOT": 0}, "tle": {"line1": "1 66659U 25274K   25337.28902679  .00005023  00000+0  49135-3 0  9999", "line2": "2 66659  97.7382 264.6620 0012467 315.9556  44.0669 14.92717917   995"}}, "geometry": {"type": "Point", "coordinates": [-73.58028611213605, -69.31764105525019]}}, {"type": "Feature", "properties": {"norad_id": 66660, "name": "K-HERO", "group": "last-30-days", "lat": -65.65955377526444, "lon": -77.19577586965546, "alt_km": 587.6968078865475, "timestamp": "2025-12-03T22:42:31.477504+00:00", "meta": {"OBJECT_NAME": "K-HERO", "OBJECT_ID": "2025-274L", "EPOCH": "2025-12-03T08:31:45.761664", "MEAN_MOTION": 14.92870301, "ECCENTRICITY": 0.0013093, "INCLINATION": 97.7387, "RA_OF_ASC_NODE": 264.7291, "ARG_OF_PERICENTER": 316.1933, "MEAN_ANOMALY": 43.8247, "EPHEMERIS_TYPE": 0, "CLASSIFICATION_TYPE": "U", "NORAD_CAT_ID": 66660, "ELEMENT_SET_NO": 999, "REV_AT_EPOCH": 100, "BSTAR": 0.0005183, "MEAN_MOTION_DOT": 5.323e-05, "MEAN_MOTION_DDOT": 0}, "tle": {"line1": "1 66660U 25274L   25337.35539076  .00005323  00000+0  51830-3 0  9994", "line2": "2 66660  97.7387 264.7291 0013093 316.1933  43.8247 14.92870301  1004"}}, "geometry": {"type": "Point", "coordinates": [-77.19577586965546, -65.65955377526444]}}, {"type": "Feature", "properties": {"norad_id": 66661, "name": "SNUGLITE-III", "group": "last-30-days", "lat": -61.82615430532496, "lon": -79.98166660615506, "alt_km": 586.5309915006465, "timestamp": "2025-12-03T22:42:31.477514+00:00", "meta": {"OBJECT_NAME": "SNUGLITE-III", "OBJECT_ID": "2025-274M", "EPOCH": "2025-12-03T02:04:43.927392", "MEAN_MOTION": 14.93017228, "ECCENTRICITY": 0.0013814, "INCLINATION": 97.7382, "RA_OF_ASC_NODE": 264.4661, "ARG_OF_PERICENTER": 317.8272, "MEAN_ANOMALY": 42.1883, "EPHEMERIS_TYPE": 0, "CLASSIFICATION_TYPE": "U", "NORAD_CAT_ID": 66661, "ELEMENT_SET_NO": 999, "REV_AT_EPOCH": 96, "BSTAR": 0.00040938, "MEAN_MOTION_DOT": 4.208e-05, "MEAN_MOTION_DDOT": 0}, "tle": {"line1": "1 66661U 25274M   25337.08661953  .00004208  00000+0  40938-3 0  9993", "line2": "2 66661  97.7382 264.4661 0013814 317.8272  42.1883 14.93017228   967"}}, "geometry": {"type": "Point", "coordinates": [-79.98166660615506, -61.82615430532496]}}]}